OBJECT_NAME,OBJECT_ID,EPOCH,MEAN_MOTION,ECCENTRICITY,INCLINATION,RA_OF_ASC_NODE,ARG_OF_PERICENTER,MEAN_ANOMALY,EPHEMERIS_TYPE,CLASSIFICATION_TYPE,NORAD_CAT_ID,ELEMENT_SET_NO,REV_AT_EPOCH,BSTAR,MEAN_MOTION_DOT,MEAN_MOTION_DDOT
ONEWEB-0509,2022-138Q,2026-07-20T19:55:47.309088,13.19724453,.0002088,87.9194,298.2691,105.0438,255.0925,0,U,54127,999,18124,-.69258E-4,-.15E-6,0
ONEWEB-0510,2022-138R,2026-07-20T16:36:52.153056,13.20771306,.0001867,87.9179,267.7595,85.6563,274.4783,0,U,54128,999,18370,.24818E-3,.114E-5,0
ONEWEB-0511,2022-138S,2026-07-20T19:51:13.973184,13.19723757,.000179,87.9190,298.2710,105.1570,254.9760,0,U,54129,999,18127,.29813E-5,.14E-6,0
ONEWEB-0512,2022-138T,2026-07-20T19:39:51.101280,13.19723956,.0001984,87.9183,298.2754,110.6304,249.5041,0,U,54130,999,18124,.26188E-4,.23E-6,0
ONEWEB-0513,2022-138U,2026-07-20T19:28:01.269120,13.20269574,.0001836,87.9190,298.2171,127.4863,232.6437,0,U,54131,999,18115,-.20404E-3,-.69E-6,0
ONEWEB-0514,2022-138V,2026-07-20T18:13:25.836384,13.19724340,.0001965,87.9190,298.2841,96.0592,264.0765,0,U,54132,999,18125,.864E-4,.48E-6,0
ONEWEB-0515,2022-138W,2026-07-20T16:17:29.350752,13.20772425,.0002841,87.9183,267.7580,83.1909,276.9547,0,U,54133,999,18372,.37451E-4,.28E-6,0
ONEWEB-0516,2022-138X,2026-07-20T19:26:12.864768,13.19724530,.0002189,87.9186,298.2775,101.7335,258.4043,0,U,54134,999,18126,-.44091E-4,-.5E-7,0
ONEWEB-0517,2022-138Y,2026-07-20T18:56:38.752224,13.19726316,.0001683,87.9189,298.2765,99.5952,260.5371,0,U,54135,999,18126,-.89509E-5,.9E-7,0
ONEWEB-0518,2022-138Z,2026-07-20T19:23:56.858208,13.19724394,.0002244,87.9184,298.2798,100.5133,259.6253,0,U,54136,999,18126,-.16228E-3,-.52E-6,0
ONEWEB-0519,2022-138AA,2026-07-20T20:00:19.685088,13.19723733,.0001815,87.9190,298.2688,99.5352,260.5986,0,U,54137,999,18127,.15579E-3,.75E-6,0
ONEWEB-0520,2022-138AB,2026-07-20T19:01:11.961984,13.19724239,.0002128,87.9194,298.2770,106.5593,253.5774,0,U,54138,999,18125,-.19365E-3,-.65E-6,0
ONEWEB-0521,2022-138AC,2026-07-20T19:48:56.617056,13.19723482,.0001815,87.9196,298.2600,98.3280,261.8059,0,U,54139,999,18120,-.55177E-4,-.9E-7,0
ONEWEB-0522,2022-138AD,2026-07-20T19:19:23.136096,13.19724100,.0001986,87.9195,298.2662,104.3835,255.7518,0,U,54140,999,18124,-.2654E-4,.2E-7,0
ONEWEB-0523,2022-138AE,2026-07-20T17:47:09.803616,13.20769685,.0002109,87.9181,267.7547,76.0190,284.1178,0,U,54141,999,18373,-.48724E-4,-.7E-7,0
ONEWEB-0524,2022-138AF,2026-07-20T17:32:37.436640,13.20770140,.0002802,87.9181,267.7535,86.7200,273.4254,0,U,54142,999,18373,-.14854E-3,-.47E-6,0
ONEWEB-0525,2022-138AG,2026-07-20T19:46:41.090016,13.19724211,.0002282,87.9192,298.2692,108.0491,252.0891,0,U,54143,999,18126,.78058E-4,.44E-6,0
ONEWEB-0526,2022-138AH,2026-07-20T18:45:16.549056,13.19724545,.0002153,87.9192,298.2785,101.5912,258.5463,0,U,54144,999,18123,-.76482E-4,-.18E-6,0
ONEWEB-0529,2022-138AJ,2026-07-20T18:49:49.634400,13.19725898,.0002152,87.9185,298.2846,106.0174,254.1195,0,U,54145,999,18125,-.12885E-3,-.39E-6,0
ONEWEB-0531,2022-138AK,2026-07-20T17:13:13.176768,13.20769468,.0002338,87.9184,267.7537,76.8720,283.2674,0,U,54146,999,18373,-.17395E-3,-.58E-6,0
ONEWEB-0535,2022-138AL,2026-07-20T19:37:34.401792,13.19723346,.0001901,87.9195,298.2648,91.6467,268.4883,0,U,54147,999,18127,-.12843E-3,-.38E-6,0
ONEWEB-0536,2022-138AM,2026-07-20T16:53:49.569216,13.20769906,.000254,87.9166,267.7747,77.0650,283.0767,0,U,54148,999,18372,.10064E-3,.54E-6,0
GONETS-M 23,2022-139A,2026-07-20T19:55:11.625024,12.42892120,.002233,82.5099,327.3874,146.6424,213.6068,0,U,54150,999,16982,.21665E-3,.4E-6,0
GONETS-M 24,2022-139B,2026-07-20T19:16:23.670336,12.42892602,.001743,82.5015,326.4409,156.3058,203.8828,0,U,54151,999,16982,.146E-3,.3E-6,0
GONETS-M 25,2022-139C,2026-07-20T20:52:47.293248,12.42891005,.0021363,82.5081,327.1038,155.0879,205.1236,0,U,54152,999,16983,.1633E-3,.33E-6,0
SKIF-D,2022-139D,2026-07-20T05:36:35.487648,5.00432793,.0007478,89.9487,96.6586,185.3114,174.7531,0,U,54153,999,6576,0,-.7E-7,0
STARLINK-5290,2022-141A,2026-07-20T04:58:29.303040,15.08831710,.00013829,53.1613,138.8803,83.9851,276.1298,0,U,54157,999,20572,.26083287E-4,.127E-5,0
STARLINK-5297,2022-141B,2026-07-20T05:23:38.191776,15.08836755,.00014465,53.1601,138.9882,79.7600,280.3554,0,U,54158,999,20572,.68508656E-4,.802E-5,0
STARLINK-5294,2022-141C,2026-07-20T03:42:55.291104,15.08850702,.00025201,53.1605,139.2696,31.3392,328.7750,0,U,54159,999,20571,.26904185E-3,.3997E-4,0
STARLINK-5233,2022-141D,2026-07-20T20:00:01.999008,15.29317230,.0001309,53.1605,89.8596,63.2592,46.5787,0,U,54160,999,583,-.53595E-4,-.19E-4,0
STARLINK-5269,2022-141E,2026-07-20T20:00:01.999008,15.29359516,.0001062,53.1606,134.8195,99.4898,347.8014,0,U,54161,999,583,.3713E-3,.10375E-3,0
STARLINK-5273,2022-141F,2026-07-20T13:04:36.511392,15.08863692,.0001472,53.1611,137.4283,72.5450,287.5702,0,U,54162,999,20577,.19229E-3,.2776E-4,0
STARLINK-5161,2022-141G,2026-07-20T03:53:05.818560,15.34387458,.00012759,53.1614,125.1314,87.4354,272.6795,0,U,54163,999,20591,.56227406E-4,.1523E-4,0
STARLINK-5278,2022-141H,2026-07-20T01:15:47.954304,15.34386205,.00012565,53.1626,125.8681,80.1389,279.9755,0,U,54164,999,20589,.26456931E-4,.517E-5,0
STARLINK-5279,2022-141J,2026-07-20T12:59:21.414048,15.08830037,.0001423,53.1610,137.4086,86.4302,273.6853,0,U,54165,999,20577,.4284E-4,.394E-5,0
STARLINK-5280,2022-141K,2026-07-20T12:21:10.759968,15.35404910,.00012957,53.1634,123.7699,102.3006,257.8142,0,U,54166,999,20596,-.14435939E-4,-.884E-5,0
STARLINK-5243,2022-141L,2026-07-20T20:29:44.360160,15.08830374,.0001759,53.1604,135.8038,88.6276,271.4917,0,U,54167,999,20582,.83982E-5,-.155E-5,0
STARLINK-5245,2022-141M,2026-07-20T01:30:09.697536,15.35396515,.00013219,53.1618,125.9289,89.4232,270.6922,0,U,54168,999,20589,-.3518267E-5,-.503E-5,0
STARLINK-5282,2022-141N,2026-07-20T12:23:52.264032,15.35398028,.00013343,53.1633,123.7883,83.8704,276.2451,0,U,54169,999,20596,.21854479E-4,.382E-5,0
STARLINK-5155,2022-141P,2026-07-20T11:49:01.326144,15.35401501,.00012087,53.1619,123.6389,90.0095,270.1046,0,U,54170,999,20596,.37326371E-4,.922E-5,0
STARLINK-5117,2022-141R,2026-07-20T02:13:07.546080,15.33549969,.00019101,53.1610,125.4098,92.2718,267.8503,0,U,54172,999,20590,.260522E-4,.484E-5,0
STARLINK-5242,2022-141S,2026-07-20T02:40:30.238176,15.34393438,.00012686,53.1613,125.5230,72.0192,288.0949,0,U,54173,999,20590,.5516446E-5,-.19E-5,0
STARLINK-5248,2022-141T,2026-07-20T20:00:01.999008,15.23020800,.0000598,53.1601,70.0763,69.7868,300.8940,0,U,54174,999,573,.16264E-3,.3545E-4,0
STARLINK-5256,2022-141U,2026-07-20T15:16:55.738272,15.34396791,.000167,53.1614,123.1141,97.3858,262.7334,0,U,54175,999,20598,-.22192E-4,-.1126E-4,0
STARLINK-5154,2022-141V,2026-07-20T04:47:29.719392,15.34395466,.00012919,53.1616,124.6605,86.1604,273.9546,0,U,54176,999,20592,.32722209E-4,.729E-5,0
STARLINK-5186,2022-141W,2026-07-20T03:59:09.538368,15.34387158,.0001617,53.1610,125.1551,93.2528,266.8659,0,U,54177,999,20591,.2889182E-4,.599E-5,0
STARLINK-5164,2022-141X,2026-07-20T11:45:06.249024,15.34389022,.00015425,53.1608,123.5999,60.1808,299.9347,0,U,54178,999,20596,.32573996E-4,.724E-5,0
STARLINK-5122,2022-141Y,2026-07-20T05:01:33.154464,15.35406228,.00012075,53.1617,124.7168,92.3000,267.8142,0,U,54179,999,20592,.413915E-4,.1064E-4,0
STARLINK-5227,2022-141AA,2026-07-20T04:04:12.411840,15.35399328,.00012266,53.1617,125.1754,89.6577,270.4566,0,U,54181,999,20591,.4107904E-4,.1053E-4,0
STARLINK-5231,2022-141AB,2026-07-20T00:48:02.095776,15.08798317,.00015356,53.1595,99.3470,105.3445,254.7717,0,U,54182,999,20626,-.23398336E-3,-.4006E-4,0
STARLINK-5239,2022-141AC,2026-07-20T02:34:26.832864,15.34388741,.00012029,53.1607,125.4984,67.7776,292.3355,0,U,54183,999,20590,.8401189E-5,-.92E-6,0
STARLINK-5162,2022-141AD,2026-07-20T00:52:40.645056,15.31705441,.00011432,53.1612,127.1611,88.6874,271.4259,0,U,54184,999,20587,.4367387E-5,-.23E-5,0
STARLINK-5235,2022-141AE,2026-07-20T11:54:11.515968,15.34391770,.00014692,53.1618,123.6561,93.7560,266.3611,0,U,54185,999,20596,-.15110422E-4,-.887E-5,0
STARLINK-5240,2022-141AG,2026-07-20T02:40:12.054432,15.35400294,.00016289,53.1620,125.5307,62.7255,297.3914,0,U,54187,999,20590,.26734033E-4,.552E-5,0
STARLINK-5238,2022-141AH,2026-07-20T20:00:01.999008,15.21712650,.00026,53.1595,115.6160,71.2260,347.9314,0,U,54188,999,568,.11695E-2,.26585E-3,0
STARLINK-5281,2022-141AK,2026-07-20T20:00:01.999008,15.12132556,.0003305,53.1588,116.1989,106.3028,10.6935,0,U,54190,999,558,.15898E-2,.27523E-3,0
STARLINK-4619,2022-141AL,2026-07-20T20:00:01.999008,15.24030944,.0002055,53.1599,115.6059,66.3768,358.4574,0,U,54191,999,578,.12083E-2,.29457E-3,0
STARLINK-5268,2022-141AM,2026-07-20T20:00:01.999008,15.12094067,.0000901,53.1602,115.8079,28.6443,288.6740,0,U,54192,999,583,.14504E-2,.25046E-3,0
STARLINK-5263,2022-141AN,2026-07-20T20:00:01.999008,15.11904087,.0001979,53.1596,116.1195,123.1838,34.8318,0,U,54193,999,583,.85798E-3,.14594E-3,0
STARLINK-5271,2022-141AP,2026-07-20T20:00:01.999008,15.10903663,.0003087,53.1596,116.0590,99.0510,89.5434,0,U,54194,999,583,.17394E-2,.2913E-3,0
STARLINK-5258,2022-141AQ,2026-07-20T20:00:01.999008,15.20861176,.0001579,53.1606,115.6984,78.0836,297.4938,0,U,54195,999,583,.12092E-2,.26816E-3,0
STARLINK-5237,2022-141AR,2026-07-20T20:00:01.999008,15.18549134,.0002402,53.1601,115.6574,72.8501,322.8781,0,U,54196,999,578,.13345E-2,.27694E-3,0
STARLINK-5246,2022-141AT,2026-07-20T20:00:01.999008,15.19372400,.0002856,53.1593,115.5618,112.6868,333.1799,0,U,54198,999,578,.11251E-2,.23853E-3,0
STARLINK-5244,2022-141AU,2026-07-20T20:00:01.999008,15.19421314,.0001181,53.1599,115.6991,71.5692,302.4118,0,U,54199,999,583,.13129E-2,.27941E-3,0
STARLINK-5250,2022-141AV,2026-07-20T20:00:01.999008,15.18201385,.0001977,53.1591,115.5604,78.9127,6.6443,0,U,54200,999,578,.12118E-2,.24855E-3,0
STARLINK-5199,2022-141AW,2026-07-20T20:00:01.999008,15.24020487,.0000774,53.1596,115.6071,63.4602,357.6676,0,U,54201,999,583,.99237E-3,.24106E-3,0
